API VERSION: 1.2
API SOURCE: NASA/JPL Horizons API



*******************************************************************************
Ephemeris / API_USER Sun May 14 05:40:44 2023 Pasadena, USA      / Horizons    
*******************************************************************************
Target body name: Moon (301)                      {source: DE441}
Center body name: Earth (399)                     {source: DE441}
Center-site name: (user defined site below)
*******************************************************************************
Start time      : A.D. 2022-Dec-31 00:00:00.0000 UT      
Stop  time      : A.D. 2023-Dec-31 00:00:00.0000 UT      
Step-size       : 60 minutes
*******************************************************************************
Target pole/equ : MOON_ME                         {East-longitude positive}
Target radii    : 1737.4, 1737.4, 1737.4 km       {Equator_a, b, pole_c}       
Center geodetic : 139.484444,35.300556,1.22238E-12 {E-lon(deg),Lat(deg),Alt(km)}
Center cylindric: 139.484444,5211.22956,3665.13099 {E-lon(deg),Dxy(km),Dz(km)}
Center pole/equ : ITRF93                          {East-longitude positive}
Center radii    : 6378.137, 6378.137, 6356.752 km {Equator_a, b, pole_c}       
Target primary  : Earth
Vis. interferer : MOON (R_eq= 1737.400) km        {source: DE441}
Rel. light bend : Sun                             {source: DE441}
Rel. lght bnd GM: 1.3271E+11 km^3/s^2                                          
Atmos refraction: NO (AIRLESS)
RA format       : HMS
Time format     : CAL 
Calendar mode   : Mixed Julian/Gregorian
EOP file        : eop.230511.p230804                                           
EOP coverage    : DATA-BASED 1962-JAN-20 TO 2023-MAY-11. PREDICTS-> 2023-AUG-03
Units conversion: 1 au= 149597870.700 km, c= 299792.458 km/s, 1 day= 86400.0 s 
Table cut-offs 1: Elevation (-90.0deg=NO ),Airmass (>38.000=NO), Daylight (NO )
Table cut-offs 2: Solar elongation (  0.0,180.0=NO ),Local Hour Angle( 0.0=NO )
Table cut-offs 3: RA/DEC angular rate (     0.0=NO )                           
Table format    : Comma Separated Values (spreadsheet)
********************************************************************************
 Date__(UT)__HR:MN, , ,Azi_(a-app), Elev_(a-app),       phi,  PAB-LON,  PAB-LAT,
********************************************************************************
$$SOE
 2023-May-17 02:00,*,m, 221.191655,    56.312873,  147.6317, 309.4951,  -2.1775,
 2023-May-17 03:00,*,m, 239.709451,    47.208651,  147.9938, 309.7172,  -2.0094,
 2023-May-17 04:00,*,m, 252.787074,    36.397856,  148.3810, 309.9513,  -1.8725,
 2023-May-17 05:00,*,m, 262.978749,    24.865005,  148.8025, 310.2021,  -1.7727,
 2023-May-17 06:00,*,m, 271.820567,    13.111269,  149.2649, 310.4730,  -1.7133,
 2023-May-17 07:00,*,m, 280.273107,     1.451398,  149.7722, 310.7660,  -1.6947,
 2023-May-17 08:00,*, , 289.068815,    -9.844213,  150.3252, 311.0815,  -1.7150,
 2023-May-17 09:00,*, , 298.912915,   -20.461033,  150.9219, 311.4186,  -1.7696,
 2023-May-17 10:00,C, , 310.587274,   -29.955911,  151.5576, 311.7750,  -1.8517,
 2023-May-17 11:00,A, , 324.892675,   -37.666984,  152.2254, 312.1472,  -1.9526,
 2023-May-17 12:00, , , 342.195065,   -42.688137,  152.9164, 312.5310,  -2.0618,
 2023-May-17 13:00, , ,   1.529396,   -44.114861,  153.6206, 312.9215,  -2.1677,
 2023-May-17 14:00, , ,  20.476854,   -41.621953,  154.3273, 313.3133,  -2.2580,
 2023-May-17 15:00, , ,  36.905537,   -35.744479,  155.0253, 313.7010,  -2.3199,
 2023-May-17 16:00, , ,  50.289232,   -27.430144,  155.7043, 314.0796,  -2.3418,
 2023-May-17 17:00, , ,  61.178030,   -17.519889,  156.3546, 314.4443,  -2.3131,
 2023-May-17 18:00,A, ,  70.369943,    -6.598224,  156.9681, 314.7910,  -2.2263,
 2023-May-17 19:00,N,m,  78.589439,     4.951595,  157.5387, 315.1166,  -2.0772,
 2023-May-17 20:00,*,m,  86.483184,    16.861924,  158.0630, 315.4193,  -1.8662,
 2023-May-17 21:00,*,m,  94.741250,    28.907870,  158.5400, 315.6985,  -1.5983,
 2023-May-17 22:00,*,m, 104.332063,    40.831052,  158.9721, 315.9551,  -1.2836,
 2023-May-17 23:00,*,m, 117.004820,    52.203099,  159.3644, 316.1915,  -0.9359,
 2023-May-18 00:00,*,m, 136.350038,    62.064259,  159.7251, 316.4117,  -0.5720,
 2023-May-18 01:00,*,m, 167.680376,    68.056174,  160.0646, 316.6208,  -0.2100,
 2023-May-18 02:00,*,m, 205.436922,    66.873965,  160.3948, 316.8250,   0.1325,
 2023-May-18 03:00,*,m, 232.747356,    59.379385,  160.7285, 317.0305,   0.4402,
 2023-May-18 04:00,*,m, 249.567266,    48.991704,  161.0781, 317.2439,   0.7008,
 2023-May-18 05:00,*,m, 261.136728,    37.536846,  161.4549, 317.4708,   0.9061,
 2023-May-18 06:00,*,m, 270.338896,    25.755290,  161.8681, 317.7159,   1.0521,
 2023-May-18 07:00,*,m, 278.604996,    14.013315,  162.3243, 317.9828,   1.1391,
 2023-May-18 08:00,*,m, 286.782113,     2.567456,  162.8272, 318.2731,   1.1716,
 2023-May-18 09:00,*, , 295.515733,    -8.326618,  163.3771, 318.5871,   1.1577,
 2023-May-18 10:00,C, , 305.418733,   -18.344602,  163.9718, 318.9235,   1.1088,
 2023-May-18 11:00,A, , 317.115689,   -27.029172,  164.6058, 319.2797,   1.0398,
 2023-May-18 12:00, , , 331.110215,   -33.742219,  165.2717, 319.6517,   0.9685,
 2023-May-18 13:00, , , 347.366133,   -37.712988,  165.9602, 320.0350,   0.9157,
 2023-May-18 14:00, , ,   4.809805,   -38.304441,  166.6605, 320.4242,   0.9047,
 2023-May-18 15:00, , ,  21.600970,   -35.405921,  167.3614, 320.8135,   0.9612,
 2023-May-18 16:00, , ,  36.315405,   -29.515835,  168.0514, 321.1971,   1.1118,
 2023-May-18 17:00, , ,  48.602105,   -21.399854,  168.7192, 321.5694,   1.3829,
 2023-May-18 18:00,A, ,  58.832549,   -11.750150,  169.3550, 321.9253,   1.7982,
 2023-May-18 19:00,N, ,  67.595700,    -1.074246,  169.9501, 322.2601,   2.3757,
 2023-May-18 20:00,*,m,  75.472601,    10.278487,  170.4981, 322.5703,   3.1243,
 2023-May-18 21:00,*,m,  83.022124,    22.058722,  170.9954, 322.8538,   4.0408,
 2023-May-18 22:00,*,m,  90.885142,    34.061212,  171.4414, 323.1099,   5.1079,
 2023-May-18 23:00,*,m, 100.041975,    46.060663,  171.8388, 323.3399,   6.2952,
 2023-May-19 00:00,*,m, 112.508202,    57.681122,  172.1939, 323.5470,   7.5625,
 2023-May-19 01:00,*,m, 133.435590,    67.955363,  172.5163, 323.7362,   8.8655,
 2023-May-19 02:00,*,m, 173.066103,    73.771517,  172.8178, 323.9140,  10.1637,
 2023-May-19 03:00,*,m, 218.341575,    70.534781,  173.1120, 324.0877,  11.4273,
 2023-May-19 04:00,*,m, 244.030185,    61.210359,  173.4129, 324.2650,  12.6427,
 2023-May-19 05:00,*,m, 258.400761,    49.958413,  173.7336, 324.4529,  13.8163,
 2023-May-19 06:00,*,m, 268.383610,    38.178286,  174.0854, 324.6572,  14.9773,
 2023-May-19 07:00,*,m, 276.640042,    26.361427,  174.4770, 324.8821,  16.1811,
 2023-May-19 08:00,*,m, 284.362054,    14.770241,  174.9135, 325.1297,  17.5164,
 2023-May-19 09:00,*,m, 292.251339,     3.622210,  175.3963, 325.3995,  19.1199,
 2023-May-19 10:00,C, , 300.854375,    -6.835895,  175.9224, 325.6881,  21.2068,
 2023-May-19 11:00,A, , 310.684268,   -16.276619,  176.4839, 325.9879,  24.1348,
 2023-May-19 12:00, , , 322.219006,   -24.247404,  177.0663, 326.2843,  28.5394,
 2023-May-19 13:00, , , 335.742389,   -30.156546,  177.6443, 326.5452,  35.6290,
 2023-May-19 14:00, , , 351.008033,   -33.358524,  178.1694, 326.6753,  47.7368,
 2023-May-19 15:00, , ,   6.990923,   -33.395607,  178.5439, 326.1140,  68.3389,
 2023-May-19 16:00, , ,  22.248391,   -30.263167,  178.6201, 154.1449,  83.5065,
 2023-May-19 17:00, , ,  35.737831,   -24.412694,  178.3615, 149.7381,  59.3668,
 2023-May-19 18:00,A, ,  47.191590,   -16.488417,  177.9062, 149.6453,  44.6119,
 2023-May-19 19:00,N, ,  56.874209,    -7.082537,  177.3785, 149.8420,  36.2996,
 2023-May-19 20:00,*,m,  65.240991,     3.353670,  176.8399, 150.1089,  31.5196,
 2023-May-19 21:00,*,m,  72.768833,    14.498503,  176.3195, 150.3927,  28.6957,
 2023-May-19 22:00,*,m,  79.938708,    26.119115,  175.8314, 150.6733,  27.0034,
 2023-May-19 23:00,*,m,  87.325453,    38.028631,  175.3818, 150.9417,  25.9804,
 2023-May-20 00:00,*,m,  95.859007,    50.035423,  174.9718, 151.1938,  25.3427,
 2023-May-20 01:00,*,m, 107.664015,    61.832477,  174.5985, 151.4284,  24.8997,
 2023-May-20 02:00,*,m, 129.506155,    72.531561,  174.2559, 151.6464,  24.5146,
 2023-May-20 03:00,*,m, 180.365411,    78.143502,  173.9356, 151.8501,  24.0865,
 2023-May-20 04:00,*,m, 231.522421,    72.636814,  173.6272, 152.0433,  23.5429,
 2023-May-20 05:00,*,m, 253.544155,    62.010392,  173.3193, 152.2311,  22.8382,
 2023-May-20 06:00,*,m, 265.441131,    50.308454,  172.9998, 152.4193,  21.9536,
 2023-May-20 07:00,*,m, 274.055893,    38.433807,  172.6572, 152.6145,  20.8971,
 2023-May-20 08:00,*,m, 281.531482,    26.700821,  172.2811, 152.8230,  19.7003,
 2023-May-20 09:00,*,m, 288.800529,    15.308803,  171.8635, 153.0505,  18.4128,
 2023-May-20 10:00,C,m, 296.430823,     4.453668,  171.3991, 153.3011,  17.0940,
 2023-May-20 11:00,A, , 304.881737,    -5.622512,  170.8860, 153.5770,  15.8041,
 2023-May-20 12:00, , , 314.582447,   -14.593283,  170.3258, 153.8784,  14.5966,
 2023-May-20 13:00, , , 325.900810,   -22.018325,  169.7235, 154.2035,  13.5128,
 2023-May-20 14:00, , , 338.981927,   -27.350558,  169.0869, 154.5488,  12.5804,
 2023-May-20 15:00, , , 353.482442,   -30.035506,  168.4259, 154.9093,  11.8132,
 2023-May-20 16:00, , ,   8.451415,   -29.722958,  167.7517, 155.2794,  11.2135,
 2023-May-20 17:00, , ,  22.688173,   -26.458421,  167.0766, 155.6527,  10.7747,
 2023-May-20 18:00,A, ,  35.354724,   -20.655967,  166.4123, 156.0232,  10.4835,
 2023-May-20 19:00,N, ,  46.225311,   -12.883467,  165.7701, 156.3849,  10.3225,
 2023-May-20 20:00,*, ,  55.502584,    -3.669422,  165.1598, 156.7328,  10.2712,
 2023-May-20 21:00,*,m,  63.559920,     6.572821,  164.5892, 157.0626,  10.3075,
 2023-May-20 22:00,*,m,  70.804124,    17.541388,  164.0637, 157.3712,  10.4082,
 2023-May-20 23:00,*,m,  77.656308,    29.015393,  163.5860, 157.6568,  10.5497,
